[{"OBJECT_NAME":"HAWK-A","OBJECT_ID":"2018-099H","EPOCH":"2026-03-09T16:13:51.062880","MEAN_MOTION":15.23231043,"ECCENTRICITY":0.00342596,"INCLINATION":97.4051,"RA_OF_ASC_NODE":122.2425,"ARG_OF_PERICENTER":275.5523,"MEAN_ANOMALY":84.1807,"EPHEMERIS_TYPE":0,"CLASSIFICATION_TYPE":"U","NORAD_CAT_ID":43765,"ELEMENT_SET_NO":999,"REV_AT_EPOCH":39794,"BSTAR":0.00036104215,"MEAN_MOTION_DOT":8.617e-5,"MEAN_MOTION_DDOT":0},{"OBJECT_NAME":"STARLINK-35945","OBJECT_ID":"2025-286A","EPOCH":"2026-03-09T22:32:19.946400","MEAN_MOTION":15.30210803,"ECCENTRICITY":0.00012597,"INCLINATION":53.1617,"RA_OF_ASC_NODE":357.3758,"ARG_OF_PERICENTER":91.5738,"MEAN_ANOMALY":268.5407,"EPHEMERIS_TYPE":0,"CLASSIFICATION_TYPE":"U","NORAD_CAT_ID":66925,"ELEMENT_SET_NO":999,"REV_AT_EPOCH":1545,"BSTAR":0.00097092818,"MEAN_MOTION_DOT":0.00028517,"MEAN_MOTION_DDOT":0}]
